GLOBALSTAR M057         
1 25943U 99058A   24146.31494301 -.00000079  00000+0  12715-3 0  9991
2 25943  52.0011   8.9450 0001558 309.3569  50.7142 12.24787992119409
GLOBALSTAR M059         
1 25944U 99058B   24146.78334095 -.00000062  00000+0  29972-3 0  9991
2 25944  51.9990 175.2092 0000634 255.3082 276.6869 11.99962381116284
GLOBALSTAR M056         
1 25945U 99058C   24146.49863466 -.00000117  00000+0 -34019-3 0  9999
2 25945  51.9940 187.8956 0000971 141.0198   6.3782 12.04775685115895
GLOBALSTAR M031         
1 25946U 99058D   24147.28222616 -.00000009  00000+0  82594-3 0  9994
2 25946  51.9955 101.2361 0001518  96.4763  52.0141 12.16009172117715
GLOBALSTAR M039         
1 25961U 99062A   24146.33538821 -.00000036  00000+0  37790-3 0  9997
2 25961  51.9869  10.0036 0002312 190.5951 169.4867 12.62292440131234
GLOBALSTAR M034         
1 25962U 99062B   24146.56710382 -.00000100  00000+0 -30024-3 0  9993
2 25962  51.9887 298.9590 0014025  32.5816  43.4909 11.79429205 92654
GLOBALSTAR M029         
1 25963U 99062C   24146.51586486 -.00000067  00000+0  24327-3 0  9995
2 25963  51.9819  64.2993 0003119  70.8457  99.6808 11.99878434122580
GLOBALSTAR M061         
1 25964U 99062D   24146.39336029 -.00000085  00000+0 -77568-4 0  9995
2 25964  51.9773 118.3040 0006324 317.8666 210.9165 11.76762735 75527
